start=new Date('2022-04-13T00:00:00.000Z').valueOf();
sats=[{"FILE":"3398892","PERIOD":"95.593","OBJECT_TYPE":"PAYLOAD","DECAY_DATE":null,"TLE_LINE1":"1 44920U 20001G   22102.75621982 -.00002139  00000-0 -12478-3 0  9991","PERIAPSIS":"546.029","OBJECT_ID":"2020-001G","CLASSIFICATION_TYPE":"U","CENTER_NAME":"EARTH","ECCENTRICITY":"0.00017640","TIME_SYSTEM":"UTC","MEAN_MOTION_DDOT":"0.0000000000000","APOAPSIS":"548.472","SEMIMAJOR_AXIS":"6925.385","REV_AT_EPOCH":"12477","MEAN_ELEMENT_THEORY":"SGP4","SITE":"AFETR","EPHEMERIS_TYPE":"0","MEAN_MOTION":"15.06388046","ARG_OF_PERICENTER":"55.0984","EPOCH":"2022-04-12T18:08:57.392448","TLE_LINE2":"2 44920  53.0541 272.3740 0001764  55.0984 305.0171 15.06388046124772","OBJECT_NAME":"STARLINK-1102","LAUNCH_DATE":"2020-01-07","GP_ID":"201090032","RCS_SIZE":"LARGE","BSTAR":"-0.00012478000000","INCLINATION":"53.0541","MEAN_ANOMALY":"305.0171","COUNTRY_CODE":"US","REF_FRAME":"TEME","ELEMENT_SET_NO":"999","NORAD_CAT_ID":"44920","RA_OF_ASC_NODE":"272.3740","MEAN_MOTION_DOT":"-0.00002139"},{"COUNTRY_CODE":"US","BSTAR":"0.00006274000000","INCLINATION":"53.0538","MEAN_ANOMALY":"292.6260","RA_OF_ASC_NODE":"271.9618","MEAN_MOTION_DOT":"0.00000653","REF_FRAME":"TEME","NORAD_CAT_ID":"44921","ELEMENT_SET_NO":"999","EPOCH":"2022-04-12T20:16:20.130816","MEAN_MOTION":"15.06393943","ARG_OF_PERICENTER":"67.4890","GP_ID":"201090783","RCS_SIZE":"LARGE","TLE_LINE2":"2 44921  53.0538 271.9618 0001525  67.4890 292.6260 15.06393943124767","LAUNCH_DATE":"2020-01-07","OBJECT_NAME":"STARLINK-1103","CENTER_NAME":"EARTH","ECCENTRICITY":"0.00015250","TIME_SYSTEM":"UTC","CLASSIFICATION_TYPE":"U","APOAPSIS":"548.288","REV_AT_EPOCH":"12476","SEMIMAJOR_AXIS":"6925.367","SITE":"AFETR","EPHEMERIS_TYPE":"0","MEAN_ELEMENT_THEORY":"SGP4","MEAN_MOTION_DDOT":"0.0000000000000","PERIOD":"95.593","OBJECT_TYPE":"PAYLOAD","FILE":"3398892","OBJECT_ID":"2020-001H","TLE_LINE1":"1 44921U 20001H   22102.84467744  .00000653  00000-0  62740-4 0  9991","DECAY_DATE":null,"PERIAPSIS":"546.176"},{"TLE_LINE1":"1 44922U 20001J   22102.87785347 -.00000191  00000-0  60949-5 0  9995","DECAY_DATE":null,"PERIAPSIS":"546.100","OBJECT_ID":"2020-001J","PERIOD":"95.593","OBJECT_TYPE":"PAYLOAD","FILE":"3398892","APOAPSIS":"548.384","SEMIMAJOR_AXIS":"6925.377","REV_AT_EPOCH":"12479","EPHEMERIS_TYPE":"0","SITE":"AFETR","MEAN_ELEMENT_THEORY":"SGP4","MEAN_MOTION_DDOT":"0.0000000000000","CENTER_NAME":"EARTH","ECCENTRICITY":"0.00016490","TIME_SYSTEM":"UTC","CLASSIFICATION_TYPE":"U","GP_ID":"201091034","RCS_SIZE":"LARGE","TLE_LINE2":"2 44922  53.0538 271.8111 0001649  62.6275 297.4881 15.06390609124797","OBJECT_NAME":"STARLINK-1104","LAUNCH_DATE":"2020-01-07","EPOCH":"2022-04-12T21:04:06.539808","MEAN_MOTION":"15.06390609","ARG_OF_PERICENTER":"62.6275","RA_OF_ASC_NODE":"271.8111","MEAN_MOTION_DOT":"-0.00000191","REF_FRAME":"TEME","ELEMENT_SET_NO":"999","NORAD_CAT_ID":"44922","COUNTRY_CODE":"US","BSTAR":"0.00000609490000","INCLINATION":"53.0538","MEAN_ANOMALY":"297.4881"},{"CENTER_NAME":"EARTH","ECCENTRICITY":"0.00013680","TIME_SYSTEM":"UTC","CLASSIFICATION_TYPE":"U","APOAPSIS":"548.212","REV_AT_EPOCH":"12478","SEMIMAJOR_AXIS":"6925.400","SITE":"AFETR","EPHEMERIS_TYPE":"0","MEAN_ELEMENT_THEORY":"SGP4","MEAN_MOTION_DDOT":"0.0000000000000","PERIOD":"95.593","OBJECT_TYPE":"PAYLOAD","FILE":"3398892","TLE_LINE1":"1 44923U 20001K   22102.83731869 -.00001355  00000-0 -72099-4 0  9994","DECAY_DATE":null,"OBJECT_ID":"2020-001K","PERIAPSIS":"546.317","COUNTRY_CODE":"US","BSTAR":"-0.00007209900000","INCLINATION":"53.0563","MEAN_ANOMALY":"296.9122","RA_OF_ASC_NODE":"272.0086","MEAN_MOTION_DOT":"-0.00001355","REF_FRAME":"TEME","NORAD_CAT_ID":"44923","ELEMENT_SET_NO":"999","EPOCH":"2022-04-12T20:05:44.334816","MEAN_MOTION":"15.06383334","ARG_OF_PERICENTER":"63.2007","GP_ID":"201091785","RCS_SIZE":"LARGE","TLE_LINE2":"2 44923  53.0563 272.0086 0001368  63.2007 296.9122 15.06383334124786","LAUNCH_DATE":"2020-01-07","OBJECT_NAME":"STARLINK-1106"},{"CLASSIFICATION_TYPE":"U","TIME_SYSTEM":"UTC","CENTER_NAME":"EARTH","ECCENTRICITY":"0.00014760","MEAN_MOTION_DDOT":"0.0000000000000","EPHEMERIS_TYPE":"0","SITE":"AFETR","MEAN_ELEMENT_THEORY":"SGP4","APOAPSIS":"548.242","SEMIMAJOR_AXIS":"6925.355","REV_AT_EPOCH":"12478","FILE":"3398892","OBJECT_TYPE":"PAYLOAD","PERIOD":"95.592","TLE_LINE1":"1 44924U 20001L   22102.82624360  .00001027  00000-0  87846-4 0  9991","OBJECT_ID":"2020-001L","DECAY_DATE":null,"PERIAPSIS":"546.198","INCLINATION":"53.0556","MEAN_ANOMALY":"297.1713","BSTAR":"0.00008784600000","COUNTRY_CODE":"US","NORAD_CAT_ID":"44924","ELEMENT_SET_NO":"999","REF_FRAME":"TEME","MEAN_MOTION_DOT":"0.00001027","RA_OF_ASC_NODE":"272.0605","ARG_OF_PERICENTER":"62.9427","MEAN_MOTION":"15.06397856","EPOCH":"2022-04-12T19:49:47.447040","LAUNCH_DATE":"2020-01-07","OBJECT_NAME":"STARLINK-1111","TLE_LINE2":"2 44924  53.0556 272.0605 0001476  62.9427 297.1713 15.06397856124781","RCS_SIZE":"LARGE","GP_ID":"201090533"},{"GP_ID":"201090283","RCS_SIZE":"LARGE","TLE_LINE2":"2 44925  53.0545 271.9837 0001683  52.5304 307.5838 15.06385792124784","LAUNCH_DATE":"2020-01-07","OBJECT_NAME":"STARLINK-1112","EPOCH":"2022-04-12T20:11:03.162048","MEAN_MOTION":"15.06385792","ARG_OF_PERICENTER":"52.5304","RA_OF_ASC_NODE":"271.9837","MEAN_MOTION_DOT":"-0.00001414","REF_FRAME":"TEME","NORAD_CAT_ID":"44925","ELEMENT_SET_NO":"999","COUNTRY_CODE":"US","BSTAR":"-0.00007610300000","INCLINATION":"53.0545","MEAN_ANOMALY":"307.5838","TLE_LINE1":"1 44925U 20001M   22102.84100882 -.00001414  00000-0 -76103-4 0  9998","PERIAPSIS":"546.092","DECAY_DATE":null,"OBJECT_ID":"2020-001M","PERIOD":"95.593","OBJECT_TYPE":"PAYLOAD","FILE":"3398892","APOAPSIS":"548.423","REV_AT_EPOCH":"12478","SEMIMAJOR_AXIS":"6925.392","EPHEMERIS_TYPE":"0","SITE":"AFETR","MEAN_ELEMENT_THEORY":"SGP4","MEAN_MOTION_DDOT":"0.0000000000000","CENTER_NAME":"EARTH","ECCENTRICITY":"0.00016830","TIME_SYSTEM":"UTC","CLASSIFICATION_TYPE":"U"},{"SITE":"AFETR","MEAN_ELEMENT_THEORY":"SGP4","EPHEMERIS_TYPE":"0","APOAPSIS":"550.773","REV_AT_EPOCH":"12550","SEMIMAJOR_AXIS":"6927.878","MEAN_MOTION_DDOT":"0.0000000000000","TIME_SYSTEM":"UTC","CENTER_NAME":"EARTH","ECCENTRICITY":"0.00014860","CLASSIFICATION_TYPE":"U","PERIAPSIS":"548.714","TLE_LINE1":"1 44926U 20001N   22102.88095172 -.00002010  00000-0 -11886-3 0  9997","DECAY_DATE":null,"OBJECT_ID":"2020-001N","OBJECT_TYPE":"PAYLOAD","PERIOD":"95.645","FILE":"3398892","MEAN_MOTION_DOT":"-0.00002010","RA_OF_ASC_NODE":"271.8193","NORAD_CAT_ID":"44926","ELEMENT_SET_NO":"999","REF_FRAME":"TEME","COUNTRY_CODE":"US","INCLINATION":"53.0027","MEAN_ANOMALY":"282.9432","BSTAR":"-0.00011886000000","RCS_SIZE":"LARGE","GP_ID":"201091535","LAUNCH_DATE":"2020-01-07","OBJECT_NAME":"STARLINK-1113","TLE_LINE2":"2 44926  53.0027 271.8193 0001486  77.1722 282.9432 15.05574969125504","EPOCH":"2022-04-12T21:08:34.228608","ARG_OF_PERICENTER":"77.1722","MEAN_MOTION":"15.05574969"},{"APOAPSIS":"548.322","REV_AT_EPOCH":"12479","SEMIMAJOR_AXIS":"6925.381","EPHEMERIS_TYPE":"0","SITE":"AFETR","MEAN_ELEMENT_THEORY":"SGP4","MEAN_MOTION_DDOT":"0.0000000000000","CENTER_NAME":"EARTH","ECCENTRICITY":"0.00015540","TIME_SYSTEM":"UTC","CLASSIFICATION_TYPE":"U","TLE_LINE1":"1 44927U 20001P   22102.85205940 -.00000911  00000-0 -42252-4 0  9991","PERIAPSIS":"546.170","DECAY_DATE":null,"OBJECT_ID":"2020-001P","PERIOD":"95.593","OBJECT_TYPE":"PAYLOAD","FILE":"3398892","RA_OF_ASC_NODE":"271.9304","MEAN_MOTION_DOT":"-0.00000911","REF_FRAME":"TEME","ELEMENT_SET_NO":"999","NORAD_CAT_ID":"44927","COUNTRY_CODE":"US","BSTAR":"-0.00004225200000","INCLINATION":"53.0547","MEAN_ANOMALY":"293.7686","GP_ID":"201091285","RCS_SIZE":"LARGE","TLE_LINE2":"2 44927  53.0547 271.9304 0001554  66.3466 293.7686 15.06389416124791","OBJECT_NAME":"STARLINK-1114","LAUNCH_DATE":"2020-01-07","EPOCH":"2022-04-12T20:26:57.932160","MEAN_MOTION":"15.06389416","ARG_OF_PERICENTER":"66.3466"},{"ELEMENT_SET_NO":"999","NORAD_CAT_ID":"44928","REF_FRAME":"TEME","MEAN_MOTION_DOT":"0.00000247","RA_OF_ASC_NODE":"272.2529","INCLINATION":"53.0537","MEAN_ANOMALY":"306.0530","BSTAR":"0.00003550200000","COUNTRY_CODE":"US","OBJECT_NAME":"STARLINK-1119","LAUNCH_DATE":"2020-01-07","TLE_LINE2":"2 44928  53.0537 272.2529 0001663  54.0613 306.0530 15.06386580124787","RCS_SIZE":"LARGE","GP_ID":"201090033","ARG_OF_PERICENTER":"54.0613","MEAN_MOTION":"15.06386580","EPOCH":"2022-04-12T18:46:05.439360","MEAN_MOTION_DDOT":"0.0000000000000","SITE":"AFETR","EPHEMERIS_TYPE":"0","MEAN_ELEMENT_THEORY":"SGP4","APOAPSIS":"548.406","SEMIMAJOR_AXIS":"6925.390","REV_AT_EPOCH":"12478","CLASSIFICATION_TYPE":"U","TIME_SYSTEM":"UTC","CENTER_NAME":"EARTH","ECCENTRICITY":"0.00016630","TLE_LINE1":"1 44928U 20001Q   22102.78200740  .00000247  00000-0  35502-4 0  9997","PERIAPSIS":"546.103","DECAY_DATE":null,"OBJECT_ID":"2020-001Q","FILE":"3398892","OBJECT_TYPE":"PAYLOAD","PERIOD":"95.593"},{"OBJECT_TYPE":"PAYLOAD","PERIOD":"95.592","FILE":"3398892","DECAY_DATE":null,"TLE_LINE1":"1 44929U 20001R   22102.76727049  .00000910  00000-0  79992-4 0  9990","PERIAPSIS":"546.100","OBJECT_ID":"2020-001R","TIME_SYSTEM":"UTC","ECCENTRICITY":"0.00016250","CENTER_NAME":"EARTH","CLASSIFICATION_TYPE":"U","MEAN_ELEMENT_THEORY":"SGP4","SITE":"AFETR","EPHEMERIS_TYPE":"0","SEMIMAJOR_AXIS":"6925.360","REV_AT_EPOCH":"12477","APOAPSIS":"548.350","MEAN_MOTION_DDOT":"0.0000000000000","EPOCH":"2022-04-12T18:24:52.170336","ARG_OF_PERICENTER":"55.5365","MEAN_MOTION":"15.06396284","RCS_SIZE":"LARGE","GP_ID":"201090784","LAUNCH_DATE":"2020-01-07","OBJECT_NAME":"STARLINK-1121","TLE_LINE2":"2 44929  53.0552 272.3103 0001625  55.5365 304.5777 15.06396284124779","COUNTRY_CODE":"US","MEAN_ANOMALY":"304.5777","INCLINATION":"53.0552","BSTAR":"0.00007999200000","MEAN_MOTION_DOT":"0.00000910","RA_OF_ASC_NODE":"272.3103","ELEMENT_SET_NO":"999","NORAD_CAT_ID":"44929","REF_FRAME":"TEME"}];
